IRIDIUM 119             
1 42959U 17061E   24344.88558702  .00000161  00000+0  50303-4 0  9996
2 42959  86.3971 256.8398 0002297  73.7362 286.4086 14.34217895375366
IRIDIUM 107             
1 42960U 17061F   24344.83484612  .00000194  00000+0  62160-4 0  9991
2 42960  86.3971 256.8788 0001858  71.9967 288.1431 14.34217841375368
IRIDIUM 132             
1 42961U 17061G   24344.84116627  .00000787  00000+0  27391-3 0  9995
2 42961  86.3971 256.8596 0001993  78.3409 281.8010 14.34227817375365
IRIDIUM 136             
1 42962U 17061H   24344.73336640  .00000728  00000+0  25306-3 0  9992
2 42962  86.3971 256.9088 0002174  71.9975 288.1457 14.34214218375368
IRIDIUM 139             
1 42963U 17061J   24344.87926652  .00000792  00000+0  27578-3 0  9990
2 42963  86.3973 256.9008 0002014  72.9419 287.1998 14.34209841375398
IRIDIUM 125             
1 42964U 17061K   24345.14562149  .00000597  00000+0  20622-3 0  9995
2 42964  86.3974 256.8403 0002387  66.8871 293.2576 14.34224378375443
IRIDIUM 135             
1 43070U 17083A   24344.84069586  .00000615  00000+0  21239-3 0  9997
2 43070  86.3995 193.6838 0001985  93.4675 266.6747 14.34215231364693
IRIDIUM 138             
1 43071U 17083B   24344.86605110  .00000396  00000+0  13425-3 0  9993
2 43071  86.3984 193.3688 0002634  79.1079 281.0413 14.34215557364684
